NORAD_CAT_ID,OBJECT_NAME,OBJECT_TYPE,EPOCH,MEAN_MOTION,ECCENTRICITY,INCLINATION,RA_OF_ASC_NODE,ARG_OF_PERICENTER,MEAN_ANOMALY,BSTAR,MEAN_MOTION_DOT,MEAN_MOTION_DDOT,TLE_LINE0,TLE_LINE1,TLE_LINE2,SEMIMAJOR_AXIS,PERIOD,APOGEE,PERIGEE,DECAYED
55287.0,STARLINK-5341,PAYLOAD,2024-02-02 16:12:50,14.98332527,0.0002832,70.0008,136.0494,264.2076,95.876,1.6806e-05,1.08e-06,0.0,0 STARLINK-5341,1 55287U 23010U   24033.67558443  .00000108  00000-0  16806-4 0  9991,2 55287  70.0008 136.0494 0002832 264.2076  95.8760 14.98332527 59017,6950.185,96.107,574.018,570.082,0.0
55287.0,STARLINK-5341,PAYLOAD,2024-02-03 13:02:35,14.98327024,0.0002905,70.001,133.8623,262.8428,97.2401,7.1285e-06,-8e-08,0.0,0 STARLINK-5341,1 55287U 23010U   24034.54346828 -.00000008  00000-0  71285-5 0  9993,2 55287  70.0010 133.8623 0002905 262.8428  97.2401 14.98327024 59143,6950.202,96.107,574.086,570.048,0.0
55287.0,STARLINK-5341,PAYLOAD,2024-02-03 16:14:51,14.98326704,0.0002959,70.0008,133.5254,265.3832,94.6989,5.1753e-06,-3.1e-07,0.0,0 STARLINK-5341,1 55287U 23010U   24034.67698891 -.00000031  00000-0  51753-5 0  9991,2 55287  70.0008 133.5254 0002959 265.3832  94.6989 14.98326704 58856,6950.203,96.107,574.125,570.012,0.0
55287.0,STARLINK-5341,PAYLOAD,2024-02-04 11:28:27,14.98336138,0.0003022,70.0007,131.5052,267.4591,92.6222,4.0149e-05,3.86e-06,0.0,0 STARLINK-5341,1 55287U 23010U   24035.47810134  .00000386  00000-0  40149-4 0  9994,2 55287  70.0007 131.5052 0003022 267.4591  92.6222 14.98336138 58979,6950.174,96.107,574.139,569.939,0.0
55287.0,STARLINK-5341,PAYLOAD,2024-02-04 14:40:43,14.98338466,0.0002992,70.0008,131.1688,266.9531,93.1285,6.8188e-05,7.21e-06,0.0,0 STARLINK-5341,1 55287U 23010U   24035.61161852  .00000721  00000-0  68188-4 0  9992,2 55287  70.0008 131.1688 0002992 266.9531  93.1285 14.98338466 59303,6950.167,96.106,574.111,569.952,0.0
55287.0,STARLINK-5341,PAYLOAD,2024-02-04 16:16:51,14.98339306,0.0002992,70.0008,131.0007,266.8332,93.2485,7.6654e-05,8.22e-06,0.0,0 STARLINK-5341,1 55287U 23010U   24035.67837743  .00000822  00000-0  76654-4 0  9996,2 55287  70.0008 131.0007 0002992 266.8332  93.2485 14.98339306 59313,6950.164,96.106,574.109,569.95,0.0
55287.0,STARLINK-5341,PAYLOAD,2024-02-05 11:30:29,14.98325346,0.0002843,70.0012,128.9819,266.7531,93.3303,1.8927e-05,1.33e-06,0.0,0 STARLINK-5341,1 55287U 23010U   24036.47950765  .00000133  00000-0  18927-4 0  9999,2 55287  70.0012 128.9819 0002843 266.7531  93.3303 14.98325346 59127,6950.207,96.107,574.048,570.096,0.0
55287.0,STARLINK-5341,PAYLOAD,2024-02-05 14:42:45,14.98328486,0.0002806,70.0012,128.6453,266.076,94.0078,5.3597e-05,5.47e-06,0.0,0 STARLINK-5341,1 55287U 23010U   24036.61302485  .00000547  00000-0  53597-4 0  9996,2 55287  70.0012 128.6453 0002806 266.0760  94.0078 14.98328486 59455,6950.198,96.107,574.013,570.112,0.0
55287.0,STARLINK-5341,PAYLOAD,2024-02-05 16:18:53,14.98328817,0.0002811,70.0012,128.477,266.4487,93.635,5.5477e-05,5.69e-06,0.0,0 STARLINK-5341,1 55287U 23010U   24036.67978464  .00000569  00000-0  55477-4 0  9991,2 55287  70.0012 128.4770 0002811 266.4487  93.6350 14.98328817 59468,6950.197,96.107,574.015,570.108,0.0
55287.0,STARLINK-5341,PAYLOAD,2024-02-06 11:32:29,14.9833658,0.0002759,70.0011,126.457,268.2059,91.8784,4.5904e-06,-3.8e-07,0.0,0 STARLINK-5341,1 55287U 23010U   24037.48089999 -.00000038  00000-0  45904-5 0  9994,2 55287  70.0011 126.4570 0002759 268.2059  91.8784 14.98336580 59275,6950.173,96.107,573.955,570.12,0.0
55287.0,STARLINK-5341,PAYLOAD,2024-02-06 13:08:37,14.98336796,0.0002863,70.0008,126.2884,268.4237,91.6594,1.4236e-05,7.7e-07,0.0,0 STARLINK-5341,1 55287U 23010U   24037.54765924  .00000077  00000-0  14236-4 0  9995,2 55287  70.0008 126.2884 0002863 268.4237  91.6594 14.98336796 59594,6950.172,96.107,574.027,570.047,0.0
55287.0,STARLINK-5341,PAYLOAD,2024-02-06 16:20:53,14.98338815,0.0002843,70.0011,125.9523,267.9394,92.1439,4.6262e-05,4.59e-06,0.0,0 STARLINK-5341,1 55287U 23010U   24037.68117643  .00000459  00000-0  46262-4 0  9997,2 55287  70.0011 125.9523 0002843 267.9394  92.1439 14.98338815 59611,6950.166,96.106,574.007,570.055,0.0
55287.0,STARLINK-5341,PAYLOAD,2024-02-07 11:34:31,14.98314618,0.0002819,70.0004,123.9318,267.6621,92.4216,-0.00018111,-2.252e-05,0.0,0 STARLINK-5341,1 55287U 23010U   24038.48231111 -.00002252  00000-0 -18111-3 0  9999,2 55287  70.0004 123.9318 0002819 267.6621  92.4216 14.98314618 59426,6950.24,96.108,574.065,570.146,0.0
55287.0,STARLINK-5341,PAYLOAD,2024-02-07 14:46:47,14.98313398,0.0002812,70.0004,123.5951,266.9712,93.1125,-0.00018904,-2.347e-05,0.0,0 STARLINK-5341,1 55287U 23010U   24038.61583328 -.00002347  00000-0 -18904-3 0  9999,2 55287  70.0004 123.5951 0002812 266.9712  93.1125 14.98313398 59758,6950.244,96.108,574.064,570.155,0.0
55287.0,STARLINK-5341,PAYLOAD,2024-02-08 11:36:32,14.98325198,0.0002964,69.9998,121.4063,267.012,93.07,-0.00011694,-1.488e-05,0.0,0 STARLINK-5341,1 55287U 23010U   24039.48370894 -.00001488  00000-0 -11694-3 0  9991,2 55287  69.9998 121.4063 0002964 267.0120  93.0700 14.98325198 59570,6950.208,96.107,574.133,570.013,0.0
55287.0,STARLINK-5341,PAYLOAD,2024-02-08 14:48:48,14.98330344,0.0002805,70.0004,121.0702,262.3029,97.7811,-4.2347e-05,-5.98e-06,0.0,0 STARLINK-5341,1 55287U 23010U   24039.61722405 -.00000598  00000-0 -42347-4 0  9996,2 55287  70.0004 121.0702 0002805 262.3029  97.7811 14.98330344 59907,6950.192,96.107,574.006,570.107,0.0
55287.0,STARLINK-5341,PAYLOAD,2024-02-09 11:38:31,14.98368489,0.0002643,70.0,118.8812,267.6305,92.4551,-0.00047811,-5.799e-05,0.0,0 STARLINK-5341,1 55287U 23010U   24040.48508653 -.00005799  00000-0 -47811-3 0  9998,2 55287  70.0000 118.8812 0002643 267.6305  92.4551 14.98368489 59728,6950.074,96.105,573.776,570.102,0.0
55287.0,STARLINK-5341,PAYLOAD,2024-02-09 13:14:39,14.98349041,0.0002921,70.0002,118.713,264.2849,95.7977,-1.887e-05,-3.18e-06,0.0,0 STARLINK-5341,1 55287U 23010U   24040.55184852 -.00000318  00000-0 -18870-4 0  9993,2 55287  70.0002 118.7130 0002921 264.2849  95.7977 14.98349041 60045,6950.134,96.106,574.029,569.969,0.0
55287.0,STARLINK-5341,PAYLOAD,2024-02-10 03:39:53,14.98330254,0.0002412,70.0016,117.2014,260.7076,99.381,0.00020776,2.387e-05,0.0,0 STARLINK-5341,1 55287U 23010U   24041.15270018  .00002387  00000-0  20776-3 0  9993,2 55287  70.0016 117.2014 0002412 260.7076  99.3810 14.98330254 59829,6950.192,96.107,573.733,570.381,0.0
55287.0,STARLINK-5341,PAYLOAD,2024-02-10 11:40:34,14.98321768,0.0002551,70.0011,116.357,262.1139,97.973,9.145e-05,9.98e-06,0.0,0 STARLINK-5341,1 55287U 23010U   24041.48650897  .00000998  00000-0  91450-4 0  9990,2 55287  70.0011 116.3570 0002551 262.1139  97.9730 14.98321768 59871,6950.218,96.108,573.856,570.31,0.0
55287.0,STARLINK-5341,PAYLOAD,2024-02-10 13:16:42,14.98321128,0.0002503,70.0008,116.1886,262.9925,97.095,9.6279e-05,1.056e-05,0.0,0 STARLINK-5341,1 55287U 23010U   24041.55327000  .00001056  00000-0  96279-4 0  9995,2 55287  70.0008 116.1886 0002503 262.9925  97.0950 14.98321128 60195,6950.22,96.108,573.825,570.346,0.0
55287.0,STARLINK-5341,PAYLOAD,2024-02-10 14:52:50,14.98321877,0.0002567,70.0009,116.0203,263.502,96.5847,9.3197e-05,1.019e-05,0.0,0 STARLINK-5341,1 55287U 23010U   24041.62002955  .00001019  00000-0  93197-4 0  9997,2 55287  70.0009 116.0203 0002567 263.5020  96.5847 14.98321877 60203,6950.218,96.108,573.867,570.299,0.0
55287.0,STARLINK-5341,PAYLOAD,2024-02-11 03:41:54,14.98334384,0.0002735,70.0,114.6734,266.1674,93.9173,2.0242e-06,-6.9e-07,0.0,0 STARLINK-5341,1 55287U 23010U   24042.15410328 -.00000069  00000-0  20242-5 0  9990,2 55287  70.0000 114.6734 0002735 266.1674  93.9173 14.98334384 59970,6950.179,96.107,573.945,570.143,0.0
55287.0,STARLINK-5341,PAYLOAD,2024-02-11 13:18:42,14.98338836,0.0002539,70.0005,113.6638,262.7649,97.3222,7.915e-05,8.52e-06,0.0,0 STARLINK-5341,1 55287U 23010U   24042.55465747  .00000852  00000-0  79150-4 0  9999,2 55287  70.0005 113.6638 0002539 262.7649  97.3222 14.98338836 60345,6950.166,96.106,573.795,570.266,0.0
55287.0,STARLINK-5341,PAYLOAD,2024-02-11 14:54:50,14.983406,0.0002584,70.0004,113.4954,265.4056,94.6808,9.8773e-05,1.086e-05,0.0,0 STARLINK-5341,1 55287U 23010U   24042.62141573  .00001086  00000-0  98773-4 0  9997,2 55287  70.0004 113.4954 0002584 265.4056  94.6808 14.98340600 60044,6950.16,96.106,573.821,570.229,0.0
55287.0,STARLINK-5341,PAYLOAD,2024-02-12 11:44:35,14.98336211,0.0002493,70.0007,111.3075,268.069,92.0183,0.0002297,2.649e-05,0.0,0 STARLINK-5341,1 55287U 23010U   24043.48929499  .00002649  00000-0  22970-3 0  9994,2 55287  70.0007 111.3075 0002493 268.0690  92.0183 14.98336211 60175,6950.174,96.107,573.771,570.306,0.0
55287.0,STARLINK-5341,PAYLOAD,2024-02-12 13:20:43,14.9833725,0.0002494,70.0007,111.1392,268.5769,91.5104,0.00024321,2.811e-05,0.0,0 STARLINK-5341,1 55287U 23010U   24043.55605452  .00002811  00000-0  24321-3 0  9995,2 55287  70.0007 111.1392 0002494 268.5769  91.5104 14.98337250 60494,6950.17,96.107,573.769,570.302,0.0
55287.0,STARLINK-5341,PAYLOAD,2024-02-12 14:56:51,14.98338916,0.0002501,70.0008,110.971,269.5237,90.5636,0.00026393,3.058e-05,0.0,0 STARLINK-5341,1 55287U 23010U   24043.62281339  .00003058  00000-0  26393-3 0  9992,2 55287  70.0008 110.9710 0002501 269.5237  90.5636 14.98338916 60507,6950.165,96.106,573.769,570.292,0.0
55287.0,STARLINK-5341,PAYLOAD,2024-02-13 11:46:36,14.98328466,0.0002692,70.0001,108.7824,265.8647,94.2205,3.3716e-06,-5.3e-07,0.0,0 STARLINK-5341,1 55287U 23010U   24044.49070403 -.00000053  00000-0  33716-5 0  9998,2 55287  70.0001 108.7824 0002692 265.8647  94.2205 14.98328466 60328,6950.198,96.107,573.934,570.192,0.0
55287.0,STARLINK-5341,PAYLOAD,2024-02-13 13:22:44,14.98331296,0.000281,70.0,108.6138,270.4331,89.6506,1.4907e-05,8.5e-07,0.0,0 STARLINK-5341,1 55287U 23010U   24044.55746262  .00000085  00000-0  14907-4 0  9992,2 55287  70.0000 108.6138 0002810 270.4331  89.6506 14.98331296 60640,6950.189,96.107,574.007,570.101,0.0
